*******************************************************************************
Ephemeris / WWW_USER Mon Mar 24 11:51:01 2025 Pasadena, USA      / Horizons    
*******************************************************************************
Target body name: (2018 RA1)                      {source: JPL#6}
Center body name: Earth (399)                     {source: DE441}
Center-site name: Gemini South Obs., Cerro Pachon
*******************************************************************************
Start time      : A.D. 2018-Aug-14 22:26:00.0000 UT      
Stop  time      : A.D. 2018-Aug-15 11:08:00.0000 UT      
Step-size       : 1 minutes
*******************************************************************************
Target pole/equ : undefined
Target radii    : undefined                                                    
Center geodetic : 289.2634, -30.2406227, 2.71233  {E-lon(deg),Lat(deg),Alt(km)}
Center cylindric: 289.2634,5517.21435,-3194.81213 {E-lon(deg),Dxy(km),Dz(km)}
Center pole/equ : ITRF93                          {East-longitude positive}
Center radii    : 6378.137, 6378.137, 6356.752 km {Equator_a, b, pole_c}       
Target primary  : Sun
Vis. interferer : MOON (R_eq= 1737.400) km        {source: DE441}
Rel. light bend : Sun                             {source: DE441}
Rel. lght bnd GM: 1.3271E+11 km^3/s^2                                          
Small-body perts: Yes                             {source: SB441-N16}
Atmos refraction: NO (AIRLESS)
RA format       : HMS
Time format     : CAL 
Calendar mode   : Mixed Julian/Gregorian
RTS-only print  : NO       
EOP file        : eop.250321.p250617                                           
EOP coverage    : DATA-BASED 1962-JAN-20 TO 2025-MAR-21. PREDICTS-> 2025-JUN-16
Units conversion: 1 au= 149597870.700 km, c= 299792.458 km/s, 1 day= 86400.0 s 
Table cut-offs 1: Elevation (-90.0deg=NO ),Airmass (>38.000=NO), Daylight (YES)
Table cut-offs 2: Solar elongation (  0.0,180.0=NO ),Local Hour Angle( 0.0=NO )
Table cut-offs 3: RA/DEC angular rate (     0.0=NO )                           
*******************************************************************************
Initial IAU76/J2000 heliocentric ecliptic osculating elements (au, days, deg.):
  EPOCH=  2458369.5 ! 2018-Sep-08.00 (TDB)         Residual RMS= .21275        
   EC= .3232115344739424   QR= .7703453101153647   TP= 2458436.6763547547      
   OM= 166.2054176892707   W=  269.7217787981747   IN= 8.763099478405824       
  Equivalent ICRF heliocentric cartesian coordinates (au, au/d):
   X= 9.899686155013647E-01  Y=-2.468208982240139E-01  Z=-1.030323866474361E-01
  VX=-9.411283005844916E-04 VY= 1.717513364149167E-02 VZ= 4.613440841260365E-03
Asteroid physical parameters (km, seconds, rotational period in hours):        
   GM= n.a.                RAD= n.a.               ROTPER= n.a.                
   H= 26.4                 G= .150                 B-V= n.a.                   
                           ALBEDO= n.a.            STYP= n.a.                  
*******************************************************************************
 Date__(UT)__HR:MN     R.A._________(ICRF)_________DEC
******************************************************
$$SOE
 2018-Aug-14 22:26 Cm  22 31 53.508749 +15 43 18.90909
 2018-Aug-14 22:27 Cm  22 31 53.515630 +15 43 19.13369
 2018-Aug-14 22:28 Cm  22 31 53.522453 +15 43 19.35836
 2018-Aug-14 22:29 Cm  22 31 53.529217 +15 43 19.58308
 2018-Aug-14 22:30 Cm  22 31 53.535922 +15 43 19.80787
 2018-Aug-14 22:31 Cm  22 31 53.542569 +15 43 20.03272
 2018-Aug-14 22:32 Cm  22 31 53.549157 +15 43 20.25763
 2018-Aug-14 22:33 Cm  22 31 53.555686 +15 43 20.48260
 2018-Aug-14 22:34 Cm  22 31 53.562156 +15 43 20.70762
 2018-Aug-14 22:35 Cm  22 31 53.568567 +15 43 20.93270
 2018-Aug-14 22:36 Cm  22 31 53.574918 +15 43 21.15784
 2018-Aug-14 22:37 Cm  22 31 53.581211 +15 43 21.38303
 2018-Aug-14 22:38 Cm  22 31 53.587444 +15 43 21.60828
 2018-Aug-14 22:39 Cm  22 31 53.593617 +15 43 21.83357
 2018-Aug-14 22:40 Cm  22 31 53.599731 +15 43 22.05892
 2018-Aug-14 22:41 Cm  22 31 53.605786 +15 43 22.28432
 2018-Aug-14 22:42 Cm  22 31 53.611781 +15 43 22.50977
 2018-Aug-14 22:43 Nm  22 31 53.617716 +15 43 22.73526
 2018-Aug-14 22:44 Nm  22 31 53.623591 +15 43 22.96081
 2018-Aug-14 22:45 Nm  22 31 53.629407 +15 43 23.18640
 2018-Aug-14 22:46 Nm  22 31 53.635162 +15 43 23.41203
 2018-Aug-14 22:47 Nm  22 31 53.640858 +15 43 23.63771
 2018-Aug-14 22:48 Nm  22 31 53.646493 +15 43 23.86344
 2018-Aug-14 22:49 Nm  22 31 53.652068 +15 43 24.08920
 2018-Aug-14 22:50 Nm  22 31 53.657583 +15 43 24.31501
 2018-Aug-14 22:51 Nm  22 31 53.663038 +15 43 24.54086
 2018-Aug-14 22:52 Nm  22 31 53.668433 +15 43 24.76674
 2018-Aug-14 22:53 Nm  22 31 53.673767 +15 43 24.99267
 2018-Aug-14 22:54 Nm  22 31 53.679040 +15 43 25.21863
 2018-Aug-14 22:55 Nm  22 31 53.684253 +15 43 25.44463
 2018-Aug-14 22:56 Nm  22 31 53.689405 +15 43 25.67066
 2018-Aug-14 22:57 Nm  22 31 53.694497 +15 43 25.89673
 2018-Aug-14 22:58 Nm  22 31 53.699528 +15 43 26.12283
 2018-Aug-14 22:59 Nm  22 31 53.704498 +15 43 26.34896
 2018-Aug-14 23:00 Nm  22 31 53.709407 +15 43 26.57513
 2018-Aug-14 23:01 Nm  22 31 53.714256 +15 43 26.80132
 2018-Aug-14 23:02 Nm  22 31 53.719043 +15 43 27.02754
 2018-Aug-14 23:03 Nm  22 31 53.723769 +15 43 27.25379
 2018-Aug-14 23:04 Nm  22 31 53.728435 +15 43 27.48007
 2018-Aug-14 23:05 Nm  22 31 53.733039 +15 43 27.70637
 2018-Aug-14 23:06 Nm  22 31 53.737582 +15 43 27.93270
 2018-Aug-14 23:07 Nm  22 31 53.742064 +15 43 28.15905
 2018-Aug-14 23:08 Nm  22 31 53.746485 +15 43 28.38542
 2018-Aug-14 23:09 Nm  22 31 53.750844 +15 43 28.61182
 2018-Aug-14 23:10 Nm  22 31 53.755142 +15 43 28.83824
 2018-Aug-14 23:11 Am  22 31 53.759379 +15 43 29.06467
 2018-Aug-14 23:12 Am  22 31 53.763554 +15 43 29.29113
 2018-Aug-14 23:13 Am  22 31 53.767667 +15 43 29.51760
 2018-Aug-14 23:14 Am  22 31 53.771720 +15 43 29.74409
 2018-Aug-14 23:15 Am  22 31 53.775710 +15 43 29.97059
 2018-Aug-14 23:16 Am  22 31 53.779639 +15 43 30.19711
 2018-Aug-14 23:17 Am  22 31 53.783507 +15 43 30.42364
 2018-Aug-14 23:18 Am  22 31 53.787312 +15 43 30.65018
 2018-Aug-14 23:19 Am  22 31 53.791056 +15 43 30.87674
 2018-Aug-14 23:20 Am  22 31 53.794739 +15 43 31.10330
 2018-Aug-14 23:21 Am  22 31 53.798359 +15 43 31.32988
 2018-Aug-14 23:22 Am  22 31 53.801918 +15 43 31.55646
 2018-Aug-14 23:23 Am  22 31 53.805415 +15 43 31.78305
 2018-Aug-14 23:24 Am  22 31 53.808850 +15 43 32.00964
 2018-Aug-14 23:25 Am  22 31 53.812223 +15 43 32.23624
 2018-Aug-14 23:26 Am  22 31 53.815535 +15 43 32.46285
 2018-Aug-14 23:27 Am  22 31 53.818784 +15 43 32.68945
 2018-Aug-14 23:28 Am  22 31 53.821971 +15 43 32.91606
 2018-Aug-14 23:29 Am  22 31 53.825097 +15 43 33.14267
 2018-Aug-14 23:30 Am  22 31 53.828160 +15 43 33.36928
 2018-Aug-14 23:31 Am  22 31 53.831162 +15 43 33.59589
 2018-Aug-14 23:32 Am  22 31 53.834101 +15 43 33.82249
 2018-Aug-14 23:33 Am  22 31 53.836978 +15 43 34.04909
 2018-Aug-14 23:34 Am  22 31 53.839793 +15 43 34.27569
 2018-Aug-14 23:35 Am  22 31 53.842547 +15 43 34.50228
 2018-Aug-14 23:36 Am  22 31 53.845238 +15 43 34.72886
 2018-Aug-14 23:37 Am  22 31 53.847866 +15 43 34.95544
 2018-Aug-14 23:38 Am  22 31 53.850433 +15 43 35.18201
 2018-Aug-14 23:39  m  22 31 53.852938 +15 43 35.40856
 2018-Aug-14 23:40  m  22 31 53.855380 +15 43 35.63511
 2018-Aug-14 23:41  m  22 31 53.857761 +15 43 35.86165
 2018-Aug-14 23:42  m  22 31 53.860079 +15 43 36.08817
 2018-Aug-14 23:43  m  22 31 53.862335 +15 43 36.31468
 2018-Aug-14 23:44  m  22 31 53.864529 +15 43 36.54117
 2018-Aug-14 23:45  m  22 31 53.866660 +15 43 36.76764
 2018-Aug-14 23:46  m  22 31 53.868730 +15 43 36.99410
 2018-Aug-14 23:47  m  22 31 53.870737 +15 43 37.22054
 2018-Aug-14 23:48  m  22 31 53.872682 +15 43 37.44696
 2018-Aug-14 23:49  m  22 31 53.874565 +15 43 37.67336
 2018-Aug-14 23:50  m  22 31 53.876385 +15 43 37.89974
 2018-Aug-14 23:51  m  22 31 53.878144 +15 43 38.12610
 2018-Aug-14 23:52  m  22 31 53.879840 +15 43 38.35243
 2018-Aug-14 23:53  m  22 31 53.881474 +15 43 38.57874
 2018-Aug-14 23:54  m  22 31 53.883046 +15 43 38.80502
 2018-Aug-14 23:55  m  22 31 53.884556 +15 43 39.03128
 2018-Aug-14 23:56  m  22 31 53.886003 +15 43 39.25751
 2018-Aug-14 23:57  m  22 31 53.887389 +15 43 39.48371
 2018-Aug-14 23:58  m  22 31 53.888712 +15 43 39.70987
 2018-Aug-14 23:59  m  22 31 53.889974 +15 43 39.93601
 2018-Aug-15 00:00  m  22 31 53.891173 +15 43 40.16212
 2018-Aug-15 00:01  m  22 31 53.892310 +15 43 40.38819
 2018-Aug-15 00:02  m  22 31 53.893385 +15 43 40.61423
 2018-Aug-15 00:03  m  22 31 53.894397 +15 43 40.84023
 2018-Aug-15 00:04  m  22 31 53.895348 +15 43 41.06620
 2018-Aug-15 00:05  m  22 31 53.896237 +15 43 41.29213
 2018-Aug-15 00:06  m  22 31 53.897064 +15 43 41.51802
 2018-Aug-15 00:07  m  22 31 53.897829 +15 43 41.74387
 2018-Aug-15 00:08  m  22 31 53.898532 +15 43 41.96968
 2018-Aug-15 00:09  m  22 31 53.899173 +15 43 42.19545
 2018-Aug-15 00:10  r  22 31 53.899752 +15 43 42.42117
 2018-Aug-15 00:11  m  22 31 53.900269 +15 43 42.64685
 2018-Aug-15 00:12  m  22 31 53.900724 +15 43 42.87249
 2018-Aug-15 00:13  m  22 31 53.901118 +15 43 43.09808
 2018-Aug-15 00:14  m  22 31 53.901450 +15 43 43.32363
 2018-Aug-15 00:15  m  22 31 53.901719 +15 43 43.54912
 2018-Aug-15 00:16  m  22 31 53.901928 +15 43 43.77457
 2018-Aug-15 00:17  m  22 31 53.902074 +15 43 43.99997
 2018-Aug-15 00:18  m  22 31 53.902159 +15 43 44.22532
 2018-Aug-15 00:19  m  22 31 53.902182 +15 43 44.45061
 2018-Aug-15 00:20  m  22 31 53.902144 +15 43 44.67585
 2018-Aug-15 00:21  m  22 31 53.902044 +15 43 44.90104
 2018-Aug-15 00:22  m  22 31 53.901883 +15 43 45.12617
 2018-Aug-15 00:23  m  22 31 53.901660 +15 43 45.35124
 2018-Aug-15 00:24  m  22 31 53.901376 +15 43 45.57626
 2018-Aug-15 00:25  m  22 31 53.901030 +15 43 45.80122
 2018-Aug-15 00:26  m  22 31 53.900623 +15 43 46.02612
 2018-Aug-15 00:27  m  22 31 53.900154 +15 43 46.25096
 2018-Aug-15 00:28  m  22 31 53.899625 +15 43 46.47574
